HST                     
1 20580U 90037B   26153.34296606  .00005773  00000+0  18209-3 0  9991
2 20580  28.4711 182.0162 0001700 354.7953   5.2625 15.30586461786295
POLAR                   
1 23802U 96013A   26154.17285880  .00000117  00000+0  00000+0 0  9998
2 23802  79.8387 227.2170 6456542 209.5637  88.9587  1.29846107144679
SWAS                    
1 25560U 98071A   26155.16083387  .00004979  00000+0  31583-3 0  9999
2 25560  69.8968 261.1087 0008691 272.1435  87.8734 15.09531404495309
CXO                     
1 25867U 99040B   26156.15341265  .00000679  00000+0  00000+0 0  9997
2 25867  55.9514 117.0331 7855937 310.2940   0.1967  0.37796078 17275
XMM-NEWTON              
1 25989U 99066A   26157.37875651  .00000096  00000+0  00000+0 0  9999
2 25989  64.5482 283.1267 4678331  65.0797   0.1118  0.50125302 22956
TERRA                   
1 25994U 99068A   26155.28503641  .00000491  00000+0  10892-3 0  9995
2 25994  97.9462 205.3422 0000810 263.3577 185.5303 14.61092716407720
CLUSTER II-FM7 (SAMBA)  
1 26410U 00041A   26156.98399886  .00004453  00000+0  00000+0 0  9992
2 26410 149.8917  48.5803 9040965 265.6480   0.0292  0.44829937 20254
CLUSTER II-FM8 (TANGO)  
1 26464U 00045B   26150.42970564  .00004404  00000+0  00000+0 0  9992
2 26464 150.1271  48.5941 9036059 265.4393   3.5087  0.44418197 20234
ODIN                    
1 26702U 01007A   26155.18611879  .00162235  00000+0  12424-2 0  9998
2 26702  97.3862 195.3329 0006368 160.3716 199.7793 15.71608948387353
TIMED                   
1 26998U 01055B   26154.62706029  .00001612  00000+0  15003-3 0  9996
2 26998  74.0681 262.3202 0000349  13.3633 346.7560 14.95260030328794
CORIOLIS                
1 27640U 03001A   26155.09066796  .00000099  00000+0  66958-4 0  9990
2 27640  98.7126 162.1754 0012865 249.0733 110.9067 14.19941104212362
SORCE                   
1 27651U 03004A   26154.92285900  .00003252  00000+0  24356-3 0  9995
2 27651  39.9921 337.3518 0018429 313.8415  46.0856 15.03637583269901
MOST                    
1 27843U 03031D   26154.97668809  .00000075  00000+0  54461-4 0  9997
2 27843  98.7043 162.8868 0008771 293.5336  66.4920 14.21319662188830
SCISAT 1                
1 27858U 03036A   26155.12483025  .00000674  00000+0  90775-4 0  9994
2 27858  73.9291 197.2957 0008710 265.8252  94.1929 14.81434301229511
SWIFT                   
1 28485U 04047A   26151.76835454  .00063707  00000+0  56852-3 0  9990
2 28485  20.5544 311.3972 0003289  74.7681 285.3128 15.66645040184289
HINODE (SOLAR-B)        
1 29479U 06041A   26155.24025282  .00000958  00000+0  17311-3 0  9993
2 29479  98.0549 171.5836 0016690 333.7403  26.2954 14.68604359 52971
SHIJIAN-6 02A (SJ-6 02A)
1 29505U 06046A   26155.88768855  .00005584  00000+0  28773-3 0  9992
2 29505  97.6364 196.8628 0003515 152.3407 207.8014 15.16791859 70409
SHIJIAN-6 02B (SJ-6 02B)
1 29506U 06046B   26155.81655882  .00001580  00000+0  12717-3 0  9994
2 29506  97.7157 184.9512 0014340  96.4905 263.7952 15.01343463 68889
FGRST (GLAST)           
1 33053U 08029A   26154.80528131  .00004081  00000+0  15062-3 0  9998
2 33053  25.5832 297.3955 0008323 165.4583 194.6195 15.23873209993791
SDO                     
1 36395U 10005A   26155.32544691 -.00000070  00000+0  00000+0 0  9991
2 36395  34.6250  86.5380 0001332  46.7195 134.7054  1.00271400 59934
CRYOSAT 2               
1 36508U 10013A   26155.74477834  .00000159  00000+0  38790-4 0  9995
2 36508  92.0347 274.2781 0002272  85.4325 274.7142 14.51895733856271
X-SAT                   
1 37389U 11015C   26155.79916814  .00000023  00000+0  27348-4 0  9994
2 37389  98.3507 133.4134 0014758  24.0668 336.1199 14.25201876785912
GCOM-W1 (SHIZUKU)       
1 38337U 12025A   26155.27307625  .00000608  00000+0  14499-3 0  9998
2 38337  98.2019  96.0246 0001852  85.0715  43.0135 14.57112186747150
NUSTAR                  
1 38358U 12031A   26155.91672454  .00007591  00000+0  41634-3 0  9993
2 38358   6.0250 126.1679 0009064 284.9979 294.4349 15.08680445  1301
NEOSSAT                 
1 39089U 13009D   26155.10843346  .00000166  00000+0  72145-4 0  9995
2 39089  98.4175 335.4525 0009833 287.6281  72.3831 14.35821814694863
BRITE-AUSTRIA           
1 39091U 13009F   26155.74043161  .00000204  00000+0  84090-4 0  9990
2 39091  98.3992 335.4846 0008969 278.5862  81.4309 14.36537037695269
IRIS                    
1 39197U 13033A   26155.03328219  .00001148  00000+0  13761-3 0  9990
2 39197  97.9336 354.3515 0024561   5.6073 354.5412 14.85857262698424
HISAKI (SPRINT-A)       
1 39253U 13049A   26155.68177249  .00000146  00000+0  10788-3 0  9999
2 39253  29.7212 283.5904 0136923 275.5173  82.9796 13.55543306629724
CASSIOPE                
1 39265U 13055A   26155.69236273  .00040540 -59447-6  44891-3 0  9994
2 39265  80.9144  81.8797 0296901 104.3072 259.1320 15.24063848665760
STSAT-3                 
1 39422U 13066G   26155.72748062  .00004459  00000+0  33836-3 0  9998
2 39422  97.6211 125.8181 0010820  77.8289 282.4148 15.02676871682330
SWARM B                 
1 39451U 13067A   26155.69480574  .00003777  00000+0  13512-3 0  9999
2 39451  87.7439 346.1128 0003408  93.4172 266.7467 15.28472787681338
